ISS OBJECT XT           
1 66907U 98067XT  26085.87158728  .00214941  00000+0  13542-2 0  9992
2 66907  51.6252 337.6103 0005675 191.1501 168.9373 15.75467678 17882
ISS OBJECT XU           
1 66908U 98067XU  26085.86809937  .00223623  00000+0  13933-2 0  9998
2 66908  51.6239 337.5828 0005863 190.7833 169.3042 15.75695839 17883
SILVERSAT               
1 66909U 98067XV  26085.06941294  .00268808  00000+0  13650-2 0  9994
2 66909  51.6220 340.4900 0006549 190.6465 169.4399 15.80138223 17779
ISS OBJECT XW           
1 66910U 98067XW  26085.87698002  .00181611  00000+0  12180-2 0  9994
2 66910  51.6241 337.6390 0006051 189.0578 171.0313 15.74127542 17882
ISS OBJECT XX           
1 66911U 98067XX  26085.71485361  .00443188  00000+0  16302-2 0  9990
2 66911  51.6193 335.7654 0008259 198.9784 161.0914 15.86514955 17888
ISS OBJECT XY           
1 66912U 98067XY  26085.88203806  .00109627  00000+0  99497-3 0  9995
2 66912  51.6272 339.9521 0004130 188.6075 171.4851 15.67153552 17841
KNACKSAT-2              
1 67683U 98067XZ  26085.72082440  .00038352  00000+0  60216-3 0  9996
2 67683  51.6325 347.1373 0009918 247.5502 112.4438 15.53223172  7432
CORAL                   
1 67684U 98067YA  26085.01669137  .00078154  00000+0  10528-2 0  9997
2 67684  51.6305 349.9356 0012456 234.0650 125.9187 15.57054021  7336
GXIBA-1                 
1 67685U 98067YB  26085.45427601  .00042430  00000+0  65257-3 0  9992
2 67685  51.6322 348.3572 0011846 243.4143 116.5634 15.53722996  7390
UITMSAT-2               
1 67686U 98067YC  26085.44107224  .00052259  00000+0  77644-3 0  9991
2 67686  51.6330 348.2726 0008857 214.4638 145.5779 15.54615006  7391
HMU-SAT2                
1 67687U 98067YD  26085.00850953  .00040708  00000+0  63411-3 0  9991
2 67687  51.6326 350.6331 0008474 215.7508 144.2916 15.53428839  7249
LEOPARD                 
1 67688U 98067YE  26085.44709575  .00047747  00000+0  72108-3 0  9996
2 67688  51.6330 348.3116 0008628 214.7699 145.2729 15.54208821  7310
CREW DRAGON 12          
1 67796U 26031A   26085.80952178  .00012890  00000+0  24531-3 0  9995
2 67796  51.6341 347.7277 0006206 236.0994 123.9405 15.48566257558923
PROGRESS-MS 33          
1 68319U 26058A   26085.80952178  .00012890  00000+0  24531-3 0  9996
2 68319  51.6341 347.7277 0006206 236.0994 123.9405 15.48566257   433
